O3B FM5                 
1 39188U 13031A   24114.50731553  .00000000  00000+0  00000+0 0  9995
2 39188   0.0557  21.8776 0002790   8.2816 329.8589  5.00115019197780
O3B FM4                 
1 39189U 13031B   24114.16300547  .00000000  00000+0  00000+0 0  9993
2 39189   0.0594 353.9715 0002760  33.7187 332.3262  5.00114990197789
O3B FM2                 
1 39190U 13031C   24114.05513667  .00000000  00000+0  00000+0 0  9993
2 39190   0.0623 350.0643 0002683  39.7650 330.1877  5.00115520197820
O3B PFM                 
1 39191U 13031D   24114.48044253  .00000000  00000+0  00000+0 0  9990
2 39191   0.0539  12.6452 0002603  20.6688 326.7044  5.00116237197876
O3B FM3                 
1 40079U 14038A   24113.53532730  .00000000  00000+0  00000+0 0  9994
2 40079   0.0576   1.4708 0003494  73.0098 285.5594  5.00114651173740
O3B FM7                 
1 40080U 14038B   24114.48149404  .00000000  00000+0  00000+0 0  9991
2 40080   0.0616 359.4716 0002906 354.5088   6.0182  5.00116174178909
O3B FM6                 
1 40081U 14038C   24114.50846926  .00000000  00000+0  00000+0 0  9998
2 40081   0.0571   0.4631 0002623  33.3550 326.2007  5.00115393178579
O3B FM8                 
1 40082U 14038D   24114.36208707  .00000000  00000+0  00000+0 0  9992
2 40082   0.0581   0.2272 0002787  33.3826 326.4098  5.00115449178683
O3B FM10                
1 40348U 14083A   24113.98877015  .00000000  00000+0  00000+0 0  9999
2 40348   0.0511   7.8435 0002720  27.8376 324.3389  5.00115569170618
O3B FM11                
1 40349U 14083B   24113.60220609  .00000000  00000+0  00000+0 0  9991
2 40349   0.0556   9.6984 0002238   7.8602 342.4506  5.00115656170610
O3B FM12                
1 40350U 14083C   24114.02928962  .00000000  00000+0  00000+0 0  9996
2 40350   0.0553   8.8032 0002464  24.0023 327.2115  5.00115658170645
O3B FM9                 
1 40351U 14083D   24114.45575573  .00000000  00000+0  00000+0 0  9999
2 40351   0.0566  10.3464 0002639  20.9562 328.7151  5.00115092170800
O3B FM15                
1 43231U 18024A   24114.32207513  .00000000  00000+0  00000+0 0  9990
2 43231   0.0479   6.7660 0002602  28.4097 324.8434  5.00114975111755
O3B FM16                
1 43232U 18024B   24114.37487506  .00000000  00000+0  00000+0 0  9998
2 43232   0.0436   6.7282 0002611  27.0011 326.2893  5.00115364111680
O3B FM14                
1 43233U 18024C   24114.61491317  .00000000  00000+0  00000+0 0  9991
2 43233   0.0429   5.0295 0002922  26.4137 328.5763  5.00110243111947
O3B FM13                
1 43234U 18024D   24113.46916910  .00000000  00000+0  00000+0 0  9997
2 43234   0.0662  21.7353 0002149  17.9150 320.3668  5.00115313111765
O3B FM20                
1 44112U 19020A   24113.04221212  .00000000  00000+0  00000+0 0  9990
2 44112   0.0512   7.0352 0002295  24.3401 328.6395  5.00115965 92325
O3B FM19                
1 44113U 19020B   24110.47080572  .00000000  00000+0  00000+0 0  9993
2 44113   0.0738  11.2399 0003630 356.9675 351.7977  5.00115244 91989
O3B FM17                
1 44114U 19020C   24113.94879567  .00000000  00000+0  00000+0 0  9990
2 44114   0.0462 344.3176 0002575  51.3426 324.3586  5.00116296 92244
O3B FM18                
1 44115U 19020D   24114.29501396  .00000000  00000+0  00000+0 0  9991
2 44115   0.0513   7.6133 0002774  27.3010 325.1058  5.00116296 92385
O3B MPOWER F1           
1 54755U 22174A   24114.52384260  .00000000  00000+0  00000+0 0  9991
2 54755   0.0653   2.7818 0006680  35.3769 236.1567  5.00114759 26090
O3B MPOWER F2           
1 54756U 22174B   24114.30491573  .00000000  00000+0  00000+0 0  9994
2 54756   0.0654 359.3476 0005293  37.4935 323.1972  5.00115007 26173
O3B MPOWER F4           
1 56367U 23059A   24114.20524359  .00000000  00000+0  00000+0 0  9995
2 56367   0.0579  17.3923 0007443  12.3532 330.2986  5.00114532 19337
O3B MPOWER F3           
1 56368U 23059B   24114.27241631  .00000000  00000+0  00000+0 0  9992
2 56368   0.0574  19.0296 0005378  19.3712 321.6394  5.00115863 15462
